[{"OBJECT_NAME":"IRIDIUM 33 DEB","OBJECT_ID":"1997-051BV","EPOCH":"2026-03-03T22:54:40.044096","MEAN_MOTION":14.8995838,"ECCENTRICITY":0.0002436,"INCLINATION":86.2488,"RA_OF_ASC_NODE":251.0652,"ARG_OF_PERICENTER":122.9224,"MEAN_ANOMALY":44.3729,"EPHEMERIS_TYPE":0,"CLASSIFICATION_TYPE":"U","NORAD_CAT_ID":33960,"ELEMENT_SET_NO":999,"REV_AT_EPOCH":90074,"BSTAR":0.0035251,"MEAN_MOTION_DOT":0.00034099,"MEAN_MOTION_DDOT":0},{"OBJECT_NAME":"IRIDIUM 33 DEB","OBJECT_ID":"1997-051CB","EPOCH":"2026-03-04T03:04:27.279264","MEAN_MOTION":14.50013268,"ECCENTRICITY":0.0005582,"INCLINATION":86.3967,"RA_OF_ASC_NODE":11.083,"ARG_OF_PERICENTER":305.8166,"MEAN_ANOMALY":113.9623,"EPHEMERIS_TYPE":0,"CLASSIFICATION_TYPE":"U","NORAD_CAT_ID":33966,"ELEMENT_SET_NO":999,"REV_AT_EPOCH":89621,"BSTAR":0.00086945,"MEAN_MOTION_DOT":3.386e-5,"MEAN_MOTION_DDOT":0},{"OBJECT_NAME":"IRIDIUM 33 DEB","OBJECT_ID":"1997-051CE","EPOCH":"2026-03-04T04:15:30.746016","MEAN_MOTION":14.49970289,"ECCENTRICITY":0.0006588,"INCLINATION":86.3504,"RA_OF_ASC_NODE":342.4323,"ARG_OF_PERICENTER":180.1725,"MEAN_ANOMALY":179.9478,"EPHEMERIS_TYPE":0,"CLASSIFICATION_TYPE":"U","NORAD_CAT_ID":34071,"ELEMENT_SET_NO":999,"REV_AT_EPOCH":89514,"BSTAR":0.00088614,"MEAN_MOTION_DOT":3.448e-5,"MEAN_MOTION_DDOT":0},{"OBJECT_NAME":"IRIDIUM 33 DEB","OBJECT_ID":"1997-051CL","EPOCH":"2026-03-03T09:57:31.204800","MEAN_MOTION":14.66472442,"ECCENTRICITY":0.0011989,"INCLINATION":86.3884,"RA_OF_ASC_NODE":15.9158,"ARG_OF_PERICENTER":102.4436,"MEAN_ANOMALY":19.2427,"EPHEMERIS_TYPE":0,"CLASSIFICATION_TYPE":"U","NORAD_CAT_ID":34077,"ELEMENT_SET_NO":999,"REV_AT_EPOCH":89514,"BSTAR":0.0018337871,"MEAN_MOTION_DOT":0.0001019,"MEAN_MOTION_DDOT":0},{"OBJECT_NAME":"IRIDIUM 33 DEB","OBJECT_ID":"1997-051CN","EPOCH":"2026-03-04T04:24:29.738592","MEAN_MOTION":14.86851527,"ECCENTRICITY":0.0009776,"INCLINATION":86.3793,"RA_OF_ASC_NODE":331.5373,"ARG_OF_PERICENTER":59.6113,"MEAN_ANOMALY":102.4236,"EPHEMERIS_TYPE":0,"CLASSIFICATION_TYPE":"U","NORAD_CAT_ID":34079,"ELEMENT_SET_NO":999,"REV_AT_EPOCH":90186,"BSTAR":0.0028052,"MEAN_MOTION_DOT":0.0002513,"MEAN_MOTION_DDOT":0},{"OBJECT_NAME":"IRIDIUM 33 DEB","OBJECT_ID":"1997-051CX","EPOCH":"2026-03-03T20:37:11.479296","MEAN_MOTION":14.97508967,"ECCENTRICITY":0.0001981,"INCLINATION":86.3871,"RA_OF_ASC_NODE":353.2861,"ARG_OF_PERICENTER":55.6223,"MEAN_ANOMALY":8.9503,"EPHEMERIS_TYPE":0,"CLASSIFICATION_TYPE":"U","NORAD_CAT_ID":34088,"ELEMENT_SET_NO":999,"REV_AT_EPOCH":89953,"BSTAR":0.0046382,"MEAN_MOTION_DOT":0.00054433,"MEAN_MOTION_DDOT":0},{"OBJECT_NAME":"IRIDIUM 33 DEB","OBJECT_ID":"1997-051DA","EPOCH":"2026-03-03T19:37:29.934048","MEAN_MOTION":14.89136166,"ECCENTRICITY":0.0033474,"INCLINATION":86.3432,"RA_OF_ASC_NODE":29.4899,"ARG_OF_PERICENTER":19.0553,"MEAN_ANOMALY":341.1917,"EPHEMERIS_TYPE":0,"CLASSIFICATION_TYPE":"U","NORAD_CAT_ID":34091,"ELEMENT_SET_NO":999,"REV_AT_EPOCH":89070,"BSTAR":0.0070474,"MEAN_MOTION_DOT":0.00067774,"MEAN_MOTION_DDOT":0},{"OBJECT_NAME":"IRIDIUM 33 DEB","OBJECT_ID":"1997-051DG","EPOCH":"2026-03-04T03:58:32.375136","MEAN_MOTION":14.35501681,"ECCENTRICITY":0.0083747,"INCLINATION":86.2021,"RA_OF_ASC_NODE":325.4603,"ARG_OF_PERICENTER":94.1158,"MEAN_ANOMALY":266.9616,"EPHEMERIS_TYPE":0,"CLASSIFICATION_TYPE":"U","NORAD_CAT_ID":34097,"ELEMENT_SET_NO":999,"REV_AT_EPOCH":88287,"BSTAR":0.0016104,"MEAN_MOTION_DOT":4.84e-5,"MEAN_MOTION_DDOT":0},{"OBJECT_NAME":"IRIDIUM 33 DEB","OBJECT_ID":"1997-051DY","EPOCH":"2026-03-03T19:51:21.272256","MEAN_MOTION":14.43053267,"ECCENTRICITY":0.0051746,"INCLINATION":86.2093,"RA_OF_ASC_NODE":296.3994,"ARG_OF_PERICENTER":184.6645,"MEAN_ANOMALY":175.4081,"EPHEMERIS_TYPE":0,"CLASSIFICATION_TYPE":"U","NORAD_CAT_ID":34145,"ELEMENT_SET_NO":999,"REV_AT_EPOCH":88807,"BSTAR":0.0010654,"MEAN_MOTION_DOT":3.648e-5,"MEAN_MOTION_DDOT":0},{"OBJECT_NAME":"IRIDIUM 33 DEB","OBJECT_ID":"1997-051DZ","EPOCH":"2026-03-04T04:10:36.202368","MEAN_MOTION":14.49704387,"ECCENTRICITY":0.0026049,"INCLINATION":86.2842,"RA_OF_ASC_NODE":313.8266,"ARG_OF_PERICENTER":318.9414,"MEAN_ANOMALY":194.2002,"EPHEMERIS_TYPE":0,"CLASSIFICATION_TYPE":"U","NORAD_CAT_ID":34146,"ELEMENT_SET_NO":999,"REV_AT_EPOCH":89286,"BSTAR":0.00089512,"MEAN_MOTION_DOT":3.478e-5,"MEAN_MOTION_DDOT":0},{"OBJECT_NAME":"IRIDIUM 33 DEB","OBJECT_ID":"1997-051EN","EPOCH":"2026-03-03T20:03:07.700256","MEAN_MOTION":14.38733282,"ECCENTRICITY":0.00293,"INCLINATION":86.3545,"RA_OF_ASC_NODE":13.6519,"ARG_OF_PERICENTER":25.1079,"MEAN_ANOMALY":335.1536,"EPHEMERIS_TYPE":0,"CLASSIFICATION_TYPE":"U","NORAD_CAT_ID":34159,"ELEMENT_SET_NO":999,"REV_AT_EPOCH":89125,"BSTAR":0.00064975,"MEAN_MOTION_DOT":2.023e-5,"MEAN_MOTION_DDOT":0},{"OBJECT_NAME":"IRIDIUM 33 DEB","OBJECT_ID":"1997-051ES","EPOCH":"2026-03-04T03:59:28.243104","MEAN_MOTION":14.45677187,"ECCENTRICITY":0.001913,"INCLINATION":86.3309,"RA_OF_ASC_NODE":327.4883,"ARG_OF_PERICENTER":225.8608,"MEAN_ANOMALY":301.5122,"EPHEMERIS_TYPE":0,"CLASSIFICATION_TYPE":"U","NORAD_CAT_ID":34350,"ELEMENT_SET_NO":999,"REV_AT_EPOCH":89469,"BSTAR":0.00045464,"MEAN_MOTION_DOT":1.631e-5,"MEAN_MOTION_DDOT":0},{"OBJECT_NAME":"IRIDIUM 33 DEB","OBJECT_ID":"1997-051FJ","EPOCH":"2026-03-03T20:27:21.242016","MEAN_MOTION":14.54938383,"ECCENTRICITY":0.0017787,"INCLINATION":86.3724,"RA_OF_ASC_NODE":14.0014,"ARG_OF_PERICENTER":224.7974,"MEAN_ANOMALY":163.8076,"EPHEMERIS_TYPE":0,"CLASSIFICATION_TYPE":"U","NORAD_CAT_ID":34366,"ELEMENT_SET_NO":999,"REV_AT_EPOCH":89361,"BSTAR":0.0017031,"MEAN_MOTION_DOT":7.36e-5,"MEAN_MOTION_DDOT":0},{"OBJECT_NAME":"IRIDIUM 33 DEB","OBJECT_ID":"1997-051FT","EPOCH":"2026-03-04T04:25:33.723840","MEAN_MOTION":14.18167194,"ECCENTRICITY":0.0100804,"INCLINATION":86.4352,"RA_OF_ASC_NODE":149.8964,"ARG_OF_PERICENTER":227.2597,"MEAN_ANOMALY":159.5741,"EPHEMERIS_TYPE":0,"CLASSIFICATION_TYPE":"U","NORAD_CAT_ID":34375,"ELEMENT_SET_NO":999,"REV_AT_EPOCH":87866,"BSTAR":0.00060351,"MEAN_MOTION_DOT":1.321e-5,"MEAN_MOTION_DDOT":0},{"OBJECT_NAME":"IRIDIUM 33 DEB","OBJECT_ID":"1997-051FU","EPOCH":"2026-03-04T04:23:49.004448","MEAN_MOTION":14.64429418,"ECCENTRICITY":0.0022403,"INCLINATION":86.3002,"RA_OF_ASC_NODE":329.8841,"ARG_OF_PERICENTER":255.3049,"MEAN_ANOMALY":104.568,"EPHEMERIS_TYPE":0,"CLASSIFICATION_TYPE":"U","NORAD_CAT_ID":34376,"ELEMENT_SET_NO":999,"REV_AT_EPOCH":89198,"BSTAR":0.0024228,"MEAN_MOTION_DOT":0.00012895,"MEAN_MOTION_DDOT":0},{"OBJECT_NAME":"IRIDIUM 33 DEB","OBJECT_ID":"1997-051GB","EPOCH":"2026-03-04T01:11:26.153664","MEAN_MOTION":15.01720691,"ECCENTRICITY":0.0008574,"INCLINATION":86.3957,"RA_OF_ASC_NODE":334.3339,"ARG_OF_PERICENTER":155.085,"MEAN_ANOMALY":267.2727,"EPHEMERIS_TYPE":0,"CLASSIFICATION_TYPE":"U","NORAD_CAT_ID":34486,"ELEMENT_SET_NO":999,"REV_AT_EPOCH":90204,"BSTAR":0.003684,"MEAN_MOTION_DOT":0.0004823,"MEAN_MOTION_DDOT":0}]
