IRIDIUM 33 DEB          
1 33960U 97051BV  26062.95463014  .00034099  00000+0  35251-2 0  9993
2 33960  86.2488 251.0652 0002436 122.9224  44.3729 14.89958380900741
IRIDIUM 33 DEB          
1 33966U 97051CB  26063.12809351  .00003386  00000+0  86945-3 0  9999
2 33966  86.3967  11.0830 0005582 305.8166 113.9623 14.50013268896211
IRIDIUM 33 DEB          
1 34071U 97051CE  26063.17743919  .00003448  00000+0  88614-3 0  9993
2 34071  86.3504 342.4323 0006588 180.1725 179.9478 14.49970289895140
IRIDIUM 33 DEB          
1 34077U 97051CL  26062.41494450  .00010190  00000+0  18338-2 0  9995
2 34077  86.3884  15.9158 0011989 102.4436  19.2427 14.66472442895149
IRIDIUM 33 DEB          
1 34079U 97051CN  26063.18367753  .00025130  00000+0  28052-2 0  9991
2 34079  86.3793 331.5373 0009776  59.6113 102.4236 14.86851527901869
IRIDIUM 33 DEB          
1 34088U 97051CX  26062.85916064  .00054433  00000+0  46382-2 0  9993
2 34088  86.3871 353.2861 0001981  55.6223   8.9503 14.97508967899533
IRIDIUM 33 DEB          
1 34091U 97051DA  26062.81770757  .00067774  00000+0  70474-2 0  9991
2 34091  86.3432  29.4899 0033474  19.0553 341.1917 14.89136166890705
IRIDIUM 33 DEB          
1 34097U 97051DG  26063.16565249  .00004840  00000+0  16104-2 0  9999
2 34097  86.2021 325.4603 0083747  94.1158 266.9616 14.35501681882877
IRIDIUM 33 DEB          
1 34145U 97051DY  26062.82732954  .00003648  00000+0  10654-2 0  9993
2 34145  86.2093 296.3994 0051746 184.6645 175.4081 14.43053267888078
IRIDIUM 33 DEB          
1 34146U 97051DZ  26063.17403012  .00003478  00000+0  89512-3 0  9994
2 34146  86.2842 313.8266 0026049 318.9414 194.2002 14.49704387892868
IRIDIUM 33 DEB          
1 34159U 97051EN  26062.83550579  .00002023  00000+0  64975-3 0  9992
2 34159  86.3545  13.6519 0029300  25.1079 335.1536 14.38733282891250
IRIDIUM 33 DEB          
1 34350U 97051ES  26063.16629911  .00001631  00000+0  45464-3 0  9995
2 34350  86.3309 327.4883 0019130 225.8608 301.5122 14.45677187894696
IRIDIUM 33 DEB          
1 34366U 97051FJ  26062.85232919  .00007360  00000+0  17031-2 0  9998
2 34366  86.3724  14.0014 0017787 224.7974 163.8076 14.54938383893615
IRIDIUM 33 DEB          
1 34375U 97051FT  26063.18441810  .00001321  00000+0  60351-3 0  9992
2 34375  86.4352 149.8964 0100804 227.2597 159.5741 14.18167194878669
IRIDIUM 33 DEB          
1 34376U 97051FU  26063.18320607  .00012895  00000+0  24228-2 0  9993
2 34376  86.3002 329.8841 0022403 255.3049 104.5680 14.64429418891980
IRIDIUM 33 DEB          
1 34486U 97051GB  26063.04960826  .00048230  00000+0  36840-2 0  9998
2 34486  86.3957 334.3339 0008574 155.0850 267.2727 15.01720691902041
